{"fetched_at":"2026-07-16T06:42:36.857Z","source":"https://celestrak.org/NORAD/elements/gp.php?GROUP=qianfan&FORMAT=JSON","constellation":"qianfan","records":[{"OBJECT_NAME":"QIANFAN-208","OBJECT_ID":"2026-153H","EPOCH":"2026-07-15T21:03:27.565632","CLASSIFICATION_TYPE":"U","MEAN_MOTION":14.25462085,"ECCENTRICITY":0.00082553,"INCLINATION":88.9922,"RA_OF_ASC_NODE":358.9696,"ARG_OF_PERICENTER":181.5168,"MEAN_ANOMALY":178.6001,"EPHEMERIS_TYPE":0,"NORAD_CAT_ID":69807,"ELEMENT_SET_NO":999,"REV_AT_EPOCH":164,"BSTAR":0.000065394883,"MEAN_MOTION_DOT":0.00000169,"MEAN_MOTION_DDOT":0},{"OBJECT_NAME":"QIANFAN-209","OBJECT_ID":"2026-153J","EPOCH":"2026-07-15T21:05:36.557376","CLASSIFICATION_TYPE":"U","MEAN_MOTION":14.23086096,"ECCENTRICITY":0.00074119,"INCLINATION":88.9924,"RA_OF_ASC_NODE":358.97,"ARG_OF_PERICENTER":177.6918,"MEAN_ANOMALY":182.431,"EPHEMERIS_TYPE":0,"NORAD_CAT_ID":69808,"ELEMENT_SET_NO":999,"REV_AT_EPOCH":164,"BSTAR":0.00001472713,"MEAN_MOTION_DOT":4.8e-7,"MEAN_MOTION_DDOT":0},{"OBJECT_NAME":"QIANFAN-210","OBJECT_ID":"2026-153K","EPOCH":"2026-07-15T09:11:49.116768","CLASSIFICATION_TYPE":"U","MEAN_MOTION":14.21276921,"ECCENTRICITY":0.0007724,"INCLINATION":88.9915,"RA_OF_ASC_NODE":359.0262,"ARG_OF_PERICENTER":185.4445,"MEAN_ANOMALY":174.6663,"EPHEMERIS_TYPE":0,"NORAD_CAT_ID":69809,"ELEMENT_SET_NO":999,"REV_AT_EPOCH":157,"BSTAR":-0.92638,"MEAN_MOTION_DOT":-0.01876507,"MEAN_MOTION_DDOT":0},{"OBJECT_NAME":"QIANFAN-211","OBJECT_ID":"2026-153L","EPOCH":"2026-07-15T10:52:27.212736","CLASSIFICATION_TYPE":"U","MEAN_MOTION":14.21896197,"ECCENTRICITY":0.00060095,"INCLINATION":88.9913,"RA_OF_ASC_NODE":359.0182,"ARG_OF_PERICENTER":176.2905,"MEAN_ANOMALY":183.8332,"EPHEMERIS_TYPE":0,"NORAD_CAT_ID":69810,"ELEMENT_SET_NO":999,"REV_AT_EPOCH":158,"BSTAR":-0.9207223,"MEAN_MOTION_DOT":-0.01886038,"MEAN_MOTION_DDOT":0},{"OBJECT_NAME":"QIANFAN-212","OBJECT_ID":"2026-153M","EPOCH":"2026-07-15T10:51:17.222688","CLASSIFICATION_TYPE":"U","MEAN_MOTION":14.21876559,"ECCENTRICITY":0.0006304,"INCLINATION":88.9917,"RA_OF_ASC_NODE":359.0179,"ARG_OF_PERICENTER":173.1887,"MEAN_ANOMALY":186.939,"EPHEMERIS_TYPE":0,"NORAD_CAT_ID":69811,"ELEMENT_SET_NO":999,"REV_AT_EPOCH":158,"BSTAR":-0.83873,"MEAN_MOTION_DOT":-0.01709202,"MEAN_MOTION_DDOT":0},{"OBJECT_NAME":"QIANFAN-213","OBJECT_ID":"2026-153N","EPOCH":"2026-07-15T22:40:50.902176","CLASSIFICATION_TYPE":"U","MEAN_MOTION":14.26673662,"ECCENTRICITY":0.00078431,"INCLINATION":88.9922,"RA_OF_ASC_NODE":358.9613,"ARG_OF_PERICENTER":182.0005,"MEAN_ANOMALY":178.1159,"EPHEMERIS_TYPE":0,"NORAD_CAT_ID":69812,"ELEMENT_SET_NO":999,"REV_AT_EPOCH":165,"BSTAR":0.000052059085,"MEAN_MOTION_DOT":0.0000014,"MEAN_MOTION_DDOT":0},{"OBJECT_NAME":"QIANFAN-214","OBJECT_ID":"2026-153P","EPOCH":"2026-07-15T19:16:19.053984","CLASSIFICATION_TYPE":"U","MEAN_MOTION":14.2179231,"ECCENTRICITY":0.00061765,"INCLINATION":88.9919,"RA_OF_ASC_NODE":358.9776,"ARG_OF_PERICENTER":176.2291,"MEAN_ANOMALY":183.8948,"EPHEMERIS_TYPE":0,"NORAD_CAT_ID":69813,"ELEMENT_SET_NO":999,"REV_AT_EPOCH":163,"BSTAR":-0.83952099,"MEAN_MOTION_DOT":-0.01708174,"MEAN_MOTION_DDOT":0},{"OBJECT_NAME":"QIANFAN-215","OBJECT_ID":"2026-153Q","EPOCH":"2026-07-15T12:34:47.131968","CLASSIFICATION_TYPE":"U","MEAN_MOTION":14.26718287,"ECCENTRICITY":0.00078626,"INCLINATION":88.992,"RA_OF_ASC_NODE":359.0096,"ARG_OF_PERICENTER":184.4134,"MEAN_ANOMALY":175.6992,"EPHEMERIS_TYPE":0,"NORAD_CAT_ID":69814,"ELEMENT_SET_NO":999,"REV_AT_EPOCH":159,"BSTAR":0.000046904059,"MEAN_MOTION_DOT":0.00000128,"MEAN_MOTION_DDOT":0},{"OBJECT_NAME":"QIANFAN-216","OBJECT_ID":"2026-153R","EPOCH":"2026-07-15T22:40:44.998464","CLASSIFICATION_TYPE":"U","MEAN_MOTION":14.26719475,"ECCENTRICITY":0.00078939,"INCLINATION":88.9922,"RA_OF_ASC_NODE":358.9611,"ARG_OF_PERICENTER":182.8168,"MEAN_ANOMALY":177.2982,"EPHEMERIS_TYPE":0,"NORAD_CAT_ID":69815,"ELEMENT_SET_NO":999,"REV_AT_EPOCH":165,"BSTAR":0.000054289843,"MEAN_MOTION_DOT":0.00000146,"MEAN_MOTION_DDOT":0},{"OBJECT_NAME":"QIANFAN-217","OBJECT_ID":"2026-153S","EPOCH":"2026-07-15T22:40:10.406496","CLASSIFICATION_TYPE":"U","MEAN_MOTION":14.26767992,"ECCENTRICITY":0.00076013,"INCLINATION":88.9921,"RA_OF_ASC_NODE":358.9609,"ARG_OF_PERICENTER":179.298,"MEAN_ANOMALY":180.8226,"EPHEMERIS_TYPE":0,"NORAD_CAT_ID":69816,"ELEMENT_SET_NO":999,"REV_AT_EPOCH":165,"BSTAR":0.000013822072,"MEAN_MOTION_DOT":4.8e-7,"MEAN_MOTION_DDOT":0},{"OBJECT_NAME":"QIANFAN-218","OBJECT_ID":"2026-153T","EPOCH":"2026-07-15T22:39:41.443488","CLASSIFICATION_TYPE":"U","MEAN_MOTION":14.26810682,"ECCENTRICITY":0.00073817,"INCLINATION":88.9923,"RA_OF_ASC_NODE":358.9612,"ARG_OF_PERICENTER":176.4857,"MEAN_ANOMALY":183.639,"EPHEMERIS_TYPE":0,"NORAD_CAT_ID":69817,"ELEMENT_SET_NO":999,"REV_AT_EPOCH":165,"BSTAR":0.000044392959,"MEAN_MOTION_DOT":0.00000122,"MEAN_MOTION_DDOT":0},{"OBJECT_NAME":"QIANFAN-219","OBJECT_ID":"2026-155A","EPOCH":"2026-07-15T18:48:48.007872","CLASSIFICATION_TYPE":"U","MEAN_MOTION":14.20138558,"ECCENTRICITY":0.00284499,"INCLINATION":89.0062,"RA_OF_ASC_NODE":60.8794,"ARG_OF_PERICENTER":230.0128,"MEAN_ANOMALY":129.8564,"EPHEMERIS_TYPE":0,"NORAD_CAT_ID":69848,"ELEMENT_SET_NO":999,"REV_AT_EPOCH":146,"BSTAR":-0.75111557,"MEAN_MOTION_DOT":-0.01501209,"MEAN_MOTION_DDOT":0},{"OBJECT_NAME":"QIANFAN-220","OBJECT_ID":"2026-155B","EPOCH":"2026-07-15T13:55:30.816192","CLASSIFICATION_TYPE":"U","MEAN_MOTION":14.17198263,"ECCENTRICITY":0.00359035,"INCLINATION":89.0059,"RA_OF_ASC_NODE":60.9044,"ARG_OF_PERICENTER":226.8697,"MEAN_ANOMALY":132.9488,"EPHEMERIS_TYPE":0,"NORAD_CAT_ID":69849,"ELEMENT_SET_NO":999,"REV_AT_EPOCH":143,"BSTAR":-1.0050673,"MEAN_MOTION_DOT":-0.01896186,"MEAN_MOTION_DDOT":0},{"OBJECT_NAME":"QIANFAN-221","OBJECT_ID":"2026-155C","EPOCH":"2026-07-15T20:30:41.072256","CLASSIFICATION_TYPE":"U","MEAN_MOTION":14.26646785,"ECCENTRICITY":0.00303407,"INCLINATION":89.0065,"RA_OF_ASC_NODE":60.8713,"ARG_OF_PERICENTER":221.4466,"MEAN_ANOMALY":138.4427,"EPHEMERIS_TYPE":0,"NORAD_CAT_ID":69850,"ELEMENT_SET_NO":999,"REV_AT_EPOCH":147,"BSTAR":0.00007985176,"MEAN_MOTION_DOT":0.00000208,"MEAN_MOTION_DDOT":0},{"OBJECT_NAME":"QIANFAN-222","OBJECT_ID":"2026-155D","EPOCH":"2026-07-15T22:22:26.732640","CLASSIFICATION_TYPE":"U","MEAN_MOTION":14.22184528,"ECCENTRICITY":0.00293563,"INCLINATION":89.0066,"RA_OF_ASC_NODE":60.8645,"ARG_OF_PERICENTER":221.206,"MEAN_ANOMALY":138.6916,"EPHEMERIS_TYPE":0,"NORAD_CAT_ID":69851,"ELEMENT_SET_NO":999,"REV_AT_EPOCH":148,"BSTAR":0.000027880577,"MEAN_MOTION_DOT":7.6e-7,"MEAN_MOTION_DDOT":0},{"OBJECT_NAME":"QIANFAN-223","OBJECT_ID":"2026-155E","EPOCH":"2026-07-15T18:55:15.130848","CLASSIFICATION_TYPE":"U","MEAN_MOTION":14.18697234,"ECCENTRICITY":0.00328723,"INCLINATION":89.0056,"RA_OF_ASC_NODE":60.88,"ARG_OF_PERICENTER":229.1788,"MEAN_ANOMALY":130.655,"EPHEMERIS_TYPE":0,"NORAD_CAT_ID":69852,"ELEMENT_SET_NO":999,"REV_AT_EPOCH":146,"BSTAR":-1.0354388,"MEAN_MOTION_DOT":-0.0199905,"MEAN_MOTION_DDOT":0},{"OBJECT_NAME":"QIANFAN-224","OBJECT_ID":"2026-155F","EPOCH":"2026-07-15T22:17:36.429504","CLASSIFICATION_TYPE":"U","MEAN_MOTION":14.23567878,"ECCENTRICITY":0.00299821,"INCLINATION":89.0059,"RA_OF_ASC_NODE":60.8633,"ARG_OF_PERICENTER":220.7124,"MEAN_ANOMALY":139.1828,"EPHEMERIS_TYPE":0,"NORAD_CAT_ID":69853,"ELEMENT_SET_NO":999,"REV_AT_EPOCH":148,"BSTAR":0.000043170126,"MEAN_MOTION_DOT":0.00000113,"MEAN_MOTION_DDOT":0},{"OBJECT_NAME":"QIANFAN-225","OBJECT_ID":"2026-155G","EPOCH":"2026-07-15T13:46:58.201536","CLASSIFICATION_TYPE":"U","MEAN_MOTION":14.2117621,"ECCENTRICITY":0.00285715,"INCLINATION":89.0057,"RA_OF_ASC_NODE":60.9028,"ARG_OF_PERICENTER":224.6226,"MEAN_ANOMALY":135.2665,"EPHEMERIS_TYPE":0,"NORAD_CAT_ID":69854,"ELEMENT_SET_NO":999,"REV_AT_EPOCH":143,"BSTAR":-1.0131532,"MEAN_MOTION_DOT":-0.0204308,"MEAN_MOTION_DDOT":0},{"OBJECT_NAME":"QIANFAN-226","OBJECT_ID":"2026-155H","EPOCH":"2026-07-15T15:26:23.400960","CLASSIFICATION_TYPE":"U","MEAN_MOTION":14.22513031,"ECCENTRICITY":0.00253289,"INCLINATION":89.0073,"RA_OF_ASC_NODE":60.8921,"ARG_OF_PERICENTER":219.4211,"MEAN_ANOMALY":140.5138,"EPHEMERIS_TYPE":0,"NORAD_CAT_ID":69855,"ELEMENT_SET_NO":999,"REV_AT_EPOCH":144,"BSTAR":-0.94247573,"MEAN_MOTION_DOT":-0.01954139,"MEAN_MOTION_DDOT":0},{"OBJECT_NAME":"QIANFAN-227","OBJECT_ID":"2026-155J","EPOCH":"2026-07-15T15:24:38.189952","CLASSIFICATION_TYPE":"U","MEAN_MOTION":14.22033823,"ECCENTRICITY":0.00291748,"INCLINATION":89.0074,"RA_OF_ASC_NODE":60.8892,"ARG_OF_PERICENTER":222.0545,"MEAN_ANOMALY":137.8407,"EPHEMERIS_TYPE":0,"NORAD_CAT_ID":69856,"ELEMENT_SET_NO":999,"REV_AT_EPOCH":144,"BSTAR":-0.85401952,"MEAN_MOTION_DOT":-0.01749557,"MEAN_MOTION_DDOT":0},{"OBJECT_NAME":"QIANFAN-228","OBJECT_ID":"2026-155K","EPOCH":"2026-07-15T22:11:06.932256","CLASSIFICATION_TYPE":"U","MEAN_MOTION":14.26683842,"ECCENTRICITY":0.00304505,"INCLINATION":89.0066,"RA_OF_ASC_NODE":60.8633,"ARG_OF_PERICENTER":221.0629,"MEAN_ANOMALY":138.8272,"EPHEMERIS_TYPE":0,"NORAD_CAT_ID":69857,"ELEMENT_SET_NO":999,"REV_AT_EPOCH":148,"BSTAR":0.000042682933,"MEAN_MOTION_DOT":0.00000118,"MEAN_MOTION_DDOT":0},{"OBJECT_NAME":"QIANFAN-229","OBJECT_ID":"2026-155L","EPOCH":"2026-07-15T13:43:11.601120","CLASSIFICATION_TYPE":"U","MEAN_MOTION":14.23030071,"ECCENTRICITY":0.00288049,"INCLINATION":89.0061,"RA_OF_ASC_NODE":60.9031,"ARG_OF_PERICENTER":217.3632,"MEAN_ANOMALY":142.5558,"EPHEMERIS_TYPE":0,"NORAD_CAT_ID":69858,"ELEMENT_SET_NO":999,"REV_AT_EPOCH":143,"BSTAR":-0.85377376,"MEAN_MOTION_DOT":-0.01800091,"MEAN_MOTION_DDOT":0},{"OBJECT_NAME":"QIANFAN-230","OBJECT_ID":"2026-155M","EPOCH":"2026-07-15T15:33:59.769216","CLASSIFICATION_TYPE":"U","MEAN_MOTION":14.20346445,"ECCENTRICITY":0.00285056,"INCLINATION":89.0059,"RA_OF_ASC_NODE":60.8958,"ARG_OF_PERICENTER":226.8287,"MEAN_ANOMALY":133.0521,"EPHEMERIS_TYPE":0,"NORAD_CAT_ID":69859,"ELEMENT_SET_NO":999,"REV_AT_EPOCH":144,"BSTAR":-0.82915774,"MEAN_MOTION_DOT":-0.01652391,"MEAN_MOTION_DDOT":0}]}
